OBJECT_NAME,OBJECT_ID,EPOCH,MEAN_MOTION,ECCENTRICITY,INCLINATION,RA_OF_ASC_NODE,ARG_OF_PERICENTER,MEAN_ANOMALY,EPHEMERIS_TYPE,CLASSIFICATION_TYPE,NORAD_CAT_ID,ELEMENT_SET_NO,REV_AT_EPOCH,BSTAR,MEAN_MOTION_DOT,MEAN_MOTION_DDOT
USA 167,2003-008A,2026-07-22T14:09:55.325088,1.00270516,.00032612,11.0297,43.0857,314.7663,33.1489,0,U,27691,999,712,0,0,0
USA 169 (MILSTAR-2 4),2003-012A,2026-07-22T20:35:55.156992,1.00273005,.00994055,12.4024,29.5457,10.6323,1.5691,0,U,27711,999,3331,0,-.201E-5,0
ASIASAT 4,2003-014A,2026-07-22T22:17:15.965664,1.00270751,.00027724,4.7920,75.2919,49.0619,298.1719,0,U,27718,999,4565,0,-.223E-5,0
HELLAS-SAT 2,2003-020A,2026-07-23T02:35:39.470208,1.00272577,.00041577,7.4412,67.4494,86.4298,175.8477,0,U,27811,999,4320,0,-.86E-6,0
THURAYA-2,2003-026A,2026-07-23T02:55:44.581728,1.00271366,.00022666,8.8933,31.8038,28.0811,328.9173,0,U,27825,999,8470,0,.123E-5,0
OPTUS C1,2003-028B,2026-07-22T22:19:38.238816,1.00274555,.00057705,6.9764,68.9715,48.3972,313.8909,0,U,27831,999,5342,0,-.153E-5,0
USA 170,2003-040A,2026-07-22T22:46:06.185280,1.00266610,.000167,10.5738,47.6031,59.8058,199.1235,0,U,27875,999,3335,0,.122E-5,0
GALAXY 13 (HORIZONS-1),2003-044A,2026-07-22T17:27:08.048736,1.00274659,.00020746,1.5078,83.3980,44.1505,284.7210,0,U,27954,999,4692,0,.135E-5,0
YAMAL 202,2003-053A,2026-07-23T06:41:06.116928,1.00271635,.00032246,6.4312,70.4971,50.6872,83.6257,0,U,28089,999,8306,0,-.82E-6,0
UFO 11 (USA 174),2003-057A,2026-07-23T01:21:59.335200,1.00270690,.00028017,8.9604,33.6278,106.9843,256.2131,0,U,28117,999,8281,0,-.106E-5,0
USA 176 (DSP 22),2004-004A,2026-07-23T01:09:05.575680,1.00263837,.0000923,12.1102,25.7999,312.1224,290.4794,0,U,28158,999,3329,0,-.301E-5,0
ABS-4 (MOBISAT-1),2004-007A,2026-07-23T03:00:36.616320,1.00275383,.00045373,6.1289,71.5632,55.3243,280.1515,0,U,28184,999,5269,0,.37E-6,0
INTELSAT 10-02,2004-022A,2026-07-23T01:00:16.416288,1.00272395,.00002119,0.0588,253.9699,257.9608,162.9160,0,U,28358,999,8091,0,-.7E-7,0
ANIK F2,2004-027A,2026-07-23T07:31:08.477184,1.00272257,.00037439,3.3784,78.9614,36.5136,187.2290,0,U,28378,999,4162,0,-.48E-6,0
AMC-15,2004-041A,2026-07-23T06:47:06.402336,1.00272285,.00025356,0.0508,278.8887,203.3118,175.5397,0,U,28446,999,7966,0,-.84E-6,0
NSS-10,2005-003A,2026-07-23T00:49:47.421696,1.00271446,.00029266,6.5370,70.0140,49.5077,156.2397,0,U,28526,999,5351,0,-.253E-5,0
INMARSAT 4-F1,2005-009A,2026-07-22T18:38:38.457600,1.00273314,.00028621,5.2168,42.7944,76.4892,278.9976,0,U,28628,999,7802,0,.33E-6,0
DIRECTV 8,2005-019A,2026-07-23T07:28:39.171936,1.00271139,.00032113,0.0133,80.7173,44.0931,169.3472,0,U,28659,999,7743,0,.6E-7,0
GALAXY 28 (G-28),2005-022A,2026-07-23T06:00:43.983648,1.00271632,.00023109,3.3881,78.4837,42.2649,243.3220,0,U,28702,999,5233,0,-.199E-5,0
THAICOM 4,2005-028A,2026-07-23T06:42:32.476320,1.00273073,.00017755,0.3359,85.4953,9.1099,66.5529,0,U,28786,999,5261,0,-.358E-5,0
ANIK F1R,2005-036A,2026-07-23T06:45:53.316576,1.00272642,.00039895,4.4023,76.1298,25.2860,193.7666,0,U,28868,999,4681,0,-.75E-6,0
SYRACUSE 3A,2005-041B,2026-07-23T02:56:29.509728,1.00271919,.00025731,4.7301,75.3916,41.0438,275.1684,0,U,28885,999,7610,0,.129E-5,0
INMARSAT 4-F2,2005-044A,2026-07-22T23:58:48.459936,1.00271776,.00030037,5.1417,43.6878,62.1762,338.0694,0,U,28899,999,7588,0,-.26E-5,0
METEOSAT-9 (MSG-2),2005-049B,2026-07-22T23:00:03.930048,1.00276551,.00024917,9.4401,53.8093,0.9883,276.6377,0,U,28912,999,735,0,.12E-5,0
EUTELSAT 174A,2005-052A,2026-07-22T20:42:09.559296,1.00273776,.00061308,4.3065,76.0843,44.9570,304.0636,0,U,28924,999,5268,0,.9E-7,0
ECHOSTAR 10,2006-003A,2026-07-23T07:31:56.962272,1.00271735,.00016142,0.0552,281.0881,172.9494,209.8038,0,U,28935,999,7482,0,-.51E-6,0
SPAINSAT,2006-007A,2026-07-23T05:56:59.503488,1.00272461,.00049765,0.6539,85.9580,31.5662,242.5148,0,U,28945,999,7457,0,-.213E-5,0
JCSAT-5A,2006-010A,2026-07-23T06:46:09.628896,1.00270847,.00019888,1.1998,83.8077,31.3112,59.4785,0,U,29045,999,7413,0,-.324E-5,0
ASTRA 1KR,2006-012A,2026-07-23T06:13:50.227968,1.00269831,.00033771,0.5642,83.1754,27.0856,303.1873,0,U,29055,999,4605,0,.123E-5,0
GALAXY 16 (G-16),2006-023A,2026-07-23T07:37:44.006016,1.00272782,.00028359,0.0268,126.7087,356.0510,193.7179,0,U,29236,999,7333,0,-.122E-5,0
EUTELSAT 33F,2006-032A,2026-07-23T06:17:42.357120,1.00269789,.00035424,1.7522,81.8383,29.1602,317.5020,0,U,29270,999,4766,0,.158E-5,0
JCSAT-3A,2006-033A,2026-07-23T06:44:54.747744,1.00270099,.00024552,0.0206,312.7399,173.4484,44.0471,0,U,29272,999,4810,0,-.34E-5,0
