USA 167                 
1 27691U 03008A   26203.59022367  .00000000  00000+0  00000+0 0  9991
2 27691  11.0297  43.0857 0003261 314.7663  33.1489  1.00270516  7126
USA 169 (MILSTAR-2 4)   
1 27711U 03012A   26203.85827728 -.00000201  00000+0  00000+0 0  9996
2 27711  12.4024  29.5457 0099405  10.6323   1.5691  1.00273005 33317
ASIASAT 4               
1 27718U 03014A   26203.92865701 -.00000223  00000+0  00000+0 0  9990
2 27718   4.7920  75.2919 0002772  49.0619 298.1719  1.00270751 45659
HELLAS-SAT 2            
1 27811U 03020A   26204.10809572 -.00000086  00000+0  00000+0 0  9993
2 27811   7.4412  67.4494 0004157  86.4298 175.8477  1.00272577 43206
THURAYA-2               
1 27825U 03026A   26204.12204377  .00000123  00000+0  00000+0 0  9999
2 27825   8.8933  31.8038 0002266  28.0811 328.9173  1.00271366 84704
OPTUS C1                
1 27831U 03028B   26203.93030369 -.00000153  00000+0  00000+0 0  9998
2 27831   6.9764  68.9715 0005770  48.3972 313.8909  1.00274555 53429
USA 170                 
1 27875U 03040A   26203.94868270  .00000122  00000+0  00000+0 0  9996
2 27875  10.5738  47.6031 0001670  59.8058 199.1235  1.00266610 33351
GALAXY 13 (HORIZONS-1)  
1 27954U 03044A   26203.72717649  .00000135  00000+0  00000+0 0  9991
2 27954   1.5078  83.3980 0002074  44.1505 284.7210  1.00274659 46922
YAMAL 202               
1 28089U 03053A   26204.27854302 -.00000082  00000+0  00000+0 0  9992
2 28089   6.4312  70.4971 0003224  50.6872  83.6257  1.00271635 83065
UFO 11 (USA 174)        
1 28117U 03057A   26204.05693675 -.00000106  00000+0  00000+0 0  9995
2 28117   8.9604  33.6278 0002801 106.9843 256.2131  1.00270690 82813
USA 176 (DSP 22)        
1 28158U 04004A   26204.04798120 -.00000301  00000+0  00000+0 0  9990
2 28158  12.1102  25.7999 0000923 312.1224 290.4794  1.00263837 33295
ABS-4 (MOBISAT-1)       
1 28184U 04007A   26204.12542380  .00000037  00000+0  00000+0 0  9991
2 28184   6.1289  71.5632 0004537  55.3243 280.1515  1.00275383 52699
INTELSAT 10-02          
1 28358U 04022A   26204.04185667 -.00000007  00000+0  00000+0 0  9991
2 28358   0.0588 253.9699 0000211 257.9608 162.9160  1.00272395 80915
ANIK F2                 
1 28378U 04027A   26204.31329256 -.00000048  00000+0  00000+0 0  9997
2 28378   3.3784  78.9614 0003743  36.5136 187.2290  1.00272257 41629
AMC-15                  
1 28446U 04041A   26204.28271299 -.00000084  00000+0  00000+0 0  9998
2 28446   0.0508 278.8887 0002535 203.3118 175.5397  1.00272285 79662
NSS-10                  
1 28526U 05003A   26204.03457664 -.00000253  00000+0  00000+0 0  9999
2 28526   6.5370  70.0140 0002926  49.5077 156.2397  1.00271446 53511
INMARSAT 4-F1           
1 28628U 05009A   26203.77683400  .00000033  00000+0  00000+0 0  9992
2 28628   5.2168  42.7944 0002862  76.4892 278.9976  1.00273314 78020
DIRECTV 8               
1 28659U 05019A   26204.31156449  .00000006  00000+0  00000+0 0  9996
2 28659   0.0133  80.7173 0003211  44.0931 169.3472  1.00271139 77430
GALAXY 28 (G-28)        
1 28702U 05022A   26204.25050907 -.00000199  00000+0  00000+0 0  9998
2 28702   3.3881  78.4837 0002310  42.2649 243.3220  1.00271632 52335
THAICOM 4               
1 28786U 05028A   26204.27954255 -.00000358  00000+0  00000+0 0  9994
2 28786   0.3359  85.4953 0001775   9.1099  66.5529  1.00273073 52615
ANIK F1R                
1 28868U 05036A   26204.28186709 -.00000075  00000+0  00000+0 0  9992
2 28868   4.4023  76.1298 0003989  25.2860 193.7666  1.00272642 46813
SYRACUSE 3A             
1 28885U 05041B   26204.12256377  .00000129  00000+0  00000+0 0  9998
2 28885   4.7301  75.3916 0002573  41.0438 275.1684  1.00271919 76103
INMARSAT 4-F2           
1 28899U 05044A   26203.99917199 -.00000260  00000+0  00000+0 0  9993
2 28899   5.1417  43.6878 0003003  62.1762 338.0694  1.00271776 75884
METEOSAT-9 (MSG-2)      
1 28912U 05049B   26203.95837882  .00000120  00000+0  00000+0 0  9994
2 28912   9.4401  53.8093 0002491   0.9883 276.6377  1.00276551  7354
EUTELSAT 174A           
1 28924U 05052A   26203.86261064  .00000009  00000+0  00000+0 0  9990
2 28924   4.3065  76.0843 0006130  44.9570 304.0636  1.00273776 52688
ECHOSTAR 10             
1 28935U 06003A   26204.31385373 -.00000051  00000+0  00000+0 0  9998
2 28935   0.0552 281.0881 0001614 172.9494 209.8038  1.00271735 74824
SPAINSAT                
1 28945U 06007A   26204.24791092 -.00000213  00000+0  00000+0 0  9994
2 28945   0.6539  85.9580 0004976  31.5662 242.5148  1.00272461 74579
JCSAT-5A                
1 29045U 06010A   26204.28205589 -.00000324  00000+0  00000+0 0  9998
2 29045   1.1998  83.8077 0001988  31.3112  59.4785  1.00270847 74132
ASTRA 1KR               
1 29055U 06012A   26204.25960912  .00000123  00000+0  00000+0 0  9992
2 29055   0.5642  83.1754 0003377  27.0856 303.1873  1.00269831 46056
GALAXY 16 (G-16)        
1 29236U 06023A   26204.31787044 -.00000122  00000+0  00000+0 0  9995
2 29236   0.0268 126.7087 0002835 356.0510 193.7179  1.00272782 73331
EUTELSAT 33F            
1 29270U 06032A   26204.26229580  .00000158  00000+0  00000+0 0  9991
2 29270   1.7522  81.8383 0003542  29.1602 317.5020  1.00269789 47667
JCSAT-3A                
1 29272U 06033A   26204.28118921 -.00000340  00000+0  00000+0 0  9996
2 29272   0.0206 312.7399 0002455 173.4484  44.0471  1.00270099 48104
